STARLINK-36636          
1 67611U 26018Y   26054.83335647 -.00189179  00000+0 -12910-2 0  9995
2 67611  97.2865 120.0325 0001541  75.1194 213.2612 15.75272547  5121
STARLINK-36407          
1 67612U 26018Z   26054.60214164  .00272266  00000+0  17638-2 0  9991
2 67612  97.2848 119.7708 0001106  54.7983 305.3386 15.75253883  5144
STARLINK-36597          
1 67613U 26018AA  26054.64487647  .00695828  00000+0  33122-2 0  9993
2 67613  97.2850 119.8621 0002028  36.2073 323.9332 15.81078279  5106
NEONSAT-1A              
1 67614U 26019A   26054.70966603  .00003705  00000+0  24662-3 0  9993
2 67614  97.4095 178.7890 0012605 217.4410 142.5941 15.07662935  3714
ELECTRON KICK STAGE R/B 
1 67616U 26019C   26054.75668268  .00552138  97532-4  20811-2 0  9997
2 67616  97.4007 180.8581 0149891 172.6146 187.7377 15.72285688  3853
STARLINK-36548          
1 67617U 26020A   26054.83335647  .00044368  00000+0  27431-3 0  9997
2 67617  42.9993 226.4994 0001588 281.6458 234.6937 15.76342268  5167
STARLINK-36601          
1 67618U 26020B   26054.83335647 -.00009265  00000+0 -53965-4 0  9999
2 67618  42.9992 225.8782 0001596 274.4071 130.7430 15.76364582  5162
STARLINK-36119          
1 67619U 26020C   26053.85325564  .00085182  00000+0  52003-3 0  9999
2 67619  42.9979 232.4229 0001530 284.7619  75.3081 15.76401836  3740
STARLINK-36607          
1 67620U 26020D   26054.83335647  .00026337  00000+0  16448-3 0  9993
2 67620  42.9993 226.0335 0001445 265.1934  77.7670 15.76330143  5163
STARLINK-36615          
1 67621U 26020E   26054.75480068  .00402035  00000+0  18772-2 0  9997
2 67621  42.9981 226.2491 0005123 132.7337 227.3967 15.81395077  3892
STARLINK-36614          
1 67622U 26020F   26053.84886925  .00138510  00000+0  83608-3 0  9994
2 67622  42.9988 232.3866 0002584 287.6022  72.4565 15.76463187  3742
STARLINK-36600          
1 67623U 26020G   26054.80144357  .00329539  00000+0  19230-2 0  9990
2 67623  42.9974 226.6264 0003964 275.9635  84.0783 15.76666953  3892
