CCSDS_OMM_VERS = 2.0
CREATION_DATE  = 
ORIGINATOR     = 

OBJECT_NAME    = STARLINK-36636
OBJECT_ID      = 2026-018Y
CENTER_NAME    = EARTH
REF_FRAME      = TEME
TIME_SYSTEM    = UTC
MEAN_ELEMENT_THEORY = SGP/SGP4

EPOCH          = 2026-02-23T20:00:01.999008
MEAN_MOTION    = 15.75272547
ECCENTRICITY   = .0001541
INCLINATION    = 97.2865
RA_OF_ASC_NODE = 120.0325
ARG_OF_PERICENTER = 75.1194
MEAN_ANOMALY   = 213.2612

EPHEMERIS_TYPE = 0
CLASSIFICATION_TYPE = U
NORAD_CAT_ID   = 67611
ELEMENT_SET_NO = 999
REV_AT_EPOCH   = 512
BSTAR          = -.1291E-2
MEAN_MOTION_DOT = -.189179E-2
MEAN_MOTION_DDOT = 0

CCSDS_OMM_VERS = 2.0
CREATION_DATE  = 
ORIGINATOR     = 

OBJECT_NAME    = STARLINK-36407
OBJECT_ID      = 2026-018Z
CENTER_NAME    = EARTH
REF_FRAME      = TEME
TIME_SYSTEM    = UTC
MEAN_ELEMENT_THEORY = SGP/SGP4

EPOCH          = 2026-02-23T14:27:05.037696
MEAN_MOTION    = 15.75253883
ECCENTRICITY   = .0001106
INCLINATION    = 97.2848
RA_OF_ASC_NODE = 119.7708
ARG_OF_PERICENTER = 54.7983
MEAN_ANOMALY   = 305.3386

EPHEMERIS_TYPE = 0
CLASSIFICATION_TYPE = U
NORAD_CAT_ID   = 67612
ELEMENT_SET_NO = 999
REV_AT_EPOCH   = 514
BSTAR          = .17638E-2
MEAN_MOTION_DOT = .272266E-2
MEAN_MOTION_DDOT = 0

CCSDS_OMM_VERS = 2.0
CREATION_DATE  = 
ORIGINATOR     = 

OBJECT_NAME    = STARLINK-36597
OBJECT_ID      = 2026-018AA
CENTER_NAME    = EARTH
REF_FRAME      = TEME
TIME_SYSTEM    = UTC
MEAN_ELEMENT_THEORY = SGP/SGP4

EPOCH          = 2026-02-23T15:28:37.327008
MEAN_MOTION    = 15.81078279
ECCENTRICITY   = .0002028
INCLINATION    = 97.2850
RA_OF_ASC_NODE = 119.8621
ARG_OF_PERICENTER = 36.2073
MEAN_ANOMALY   = 323.9332

EPHEMERIS_TYPE = 0
CLASSIFICATION_TYPE = U
NORAD_CAT_ID   = 67613
ELEMENT_SET_NO = 999
REV_AT_EPOCH   = 510
BSTAR          = .33122E-2
MEAN_MOTION_DOT = .695828E-2
MEAN_MOTION_DDOT = 0

CCSDS_OMM_VERS = 2.0
CREATION_DATE  = 
ORIGINATOR     = 

OBJECT_NAME    = NEONSAT-1A
OBJECT_ID      = 2026-019A
CENTER_NAME    = EARTH
REF_FRAME      = TEME
TIME_SYSTEM    = UTC
MEAN_ELEMENT_THEORY = SGP/SGP4

EPOCH          = 2026-02-23T17:01:55.144992
MEAN_MOTION    = 15.07662935
ECCENTRICITY   = .0012605
INCLINATION    = 97.4095
RA_OF_ASC_NODE = 178.7890
ARG_OF_PERICENTER = 217.4410
MEAN_ANOMALY   = 142.5941

EPHEMERIS_TYPE = 0
CLASSIFICATION_TYPE = U
NORAD_CAT_ID   = 67614
ELEMENT_SET_NO = 999
REV_AT_EPOCH   = 371
BSTAR          = .24662E-3
MEAN_MOTION_DOT = .3705E-4
MEAN_MOTION_DDOT = 0

CCSDS_OMM_VERS = 2.0
CREATION_DATE  = 
ORIGINATOR     = 

OBJECT_NAME    = ELECTRON KICK STAGE R/B
OBJECT_ID      = 2026-019C
CENTER_NAME    = EARTH
REF_FRAME      = TEME
TIME_SYSTEM    = UTC
MEAN_ELEMENT_THEORY = SGP/SGP4

EPOCH          = 2026-02-23T18:09:37.383552
MEAN_MOTION    = 15.72285688
ECCENTRICITY   = .0149891
INCLINATION    = 97.4007
RA_OF_ASC_NODE = 180.8581
ARG_OF_PERICENTER = 172.6146
MEAN_ANOMALY   = 187.7377

EPHEMERIS_TYPE = 0
CLASSIFICATION_TYPE = U
NORAD_CAT_ID   = 67616
ELEMENT_SET_NO = 999
REV_AT_EPOCH   = 385
BSTAR          = .20811E-2
MEAN_MOTION_DOT = .552138E-2
MEAN_MOTION_DDOT = .97532E-4

CCSDS_OMM_VERS = 2.0
CREATION_DATE  = 
ORIGINATOR     = 

OBJECT_NAME    = STARLINK-36548
OBJECT_ID      = 2026-020A
CENTER_NAME    = EARTH
REF_FRAME      = TEME
TIME_SYSTEM    = UTC
MEAN_ELEMENT_THEORY = SGP/SGP4

EPOCH          = 2026-02-23T20:00:01.999008
MEAN_MOTION    = 15.76342268
ECCENTRICITY   = .0001588
INCLINATION    = 42.9993
RA_OF_ASC_NODE = 226.4994
ARG_OF_PERICENTER = 281.6458
MEAN_ANOMALY   = 234.6937

EPHEMERIS_TYPE = 0
CLASSIFICATION_TYPE = U
NORAD_CAT_ID   = 67617
ELEMENT_SET_NO = 999
REV_AT_EPOCH   = 516
BSTAR          = .27431E-3
MEAN_MOTION_DOT = .44368E-3
MEAN_MOTION_DDOT = 0

CCSDS_OMM_VERS = 2.0
CREATION_DATE  = 
ORIGINATOR     = 

OBJECT_NAME    = STARLINK-36601
OBJECT_ID      = 2026-020B
CENTER_NAME    = EARTH
REF_FRAME      = TEME
TIME_SYSTEM    = UTC
MEAN_ELEMENT_THEORY = SGP/SGP4

EPOCH          = 2026-02-23T20:00:01.999008
MEAN_MOTION    = 15.76364582
ECCENTRICITY   = .0001596
INCLINATION    = 42.9992
RA_OF_ASC_NODE = 225.8782
ARG_OF_PERICENTER = 274.4071
MEAN_ANOMALY   = 130.7430

EPHEMERIS_TYPE = 0
CLASSIFICATION_TYPE = U
NORAD_CAT_ID   = 67618
ELEMENT_SET_NO = 999
REV_AT_EPOCH   = 516
BSTAR          = -.53965E-4
MEAN_MOTION_DOT = -.9265E-4
MEAN_MOTION_DDOT = 0

CCSDS_OMM_VERS = 2.0
CREATION_DATE  = 
ORIGINATOR     = 

OBJECT_NAME    = STARLINK-36119
OBJECT_ID      = 2026-020C
CENTER_NAME    = EARTH
REF_FRAME      = TEME
TIME_SYSTEM    = UTC
MEAN_ELEMENT_THEORY = SGP/SGP4

EPOCH          = 2026-02-22T20:28:41.287296
MEAN_MOTION    = 15.76401836
ECCENTRICITY   = .000153
INCLINATION    = 42.9979
RA_OF_ASC_NODE = 232.4229
ARG_OF_PERICENTER = 284.7619
MEAN_ANOMALY   = 75.3081

EPHEMERIS_TYPE = 0
CLASSIFICATION_TYPE = U
NORAD_CAT_ID   = 67619
ELEMENT_SET_NO = 999
REV_AT_EPOCH   = 374
BSTAR          = .52003E-3
MEAN_MOTION_DOT = .85182E-3
MEAN_MOTION_DDOT = 0

CCSDS_OMM_VERS = 2.0
CREATION_DATE  = 
ORIGINATOR     = 

OBJECT_NAME    = STARLINK-36607
OBJECT_ID      = 2026-020D
CENTER_NAME    = EARTH
REF_FRAME      = TEME
TIME_SYSTEM    = UTC
MEAN_ELEMENT_THEORY = SGP/SGP4

EPOCH          = 2026-02-23T20:00:01.999008
MEAN_MOTION    = 15.76330143
ECCENTRICITY   = .0001445
INCLINATION    = 42.9993
RA_OF_ASC_NODE = 226.0335
ARG_OF_PERICENTER = 265.1934
MEAN_ANOMALY   = 77.7670

EPHEMERIS_TYPE = 0
CLASSIFICATION_TYPE = U
NORAD_CAT_ID   = 67620
ELEMENT_SET_NO = 999
REV_AT_EPOCH   = 516
BSTAR          = .16448E-3
MEAN_MOTION_DOT = .26337E-3
MEAN_MOTION_DDOT = 0

CCSDS_OMM_VERS = 2.0
CREATION_DATE  = 
ORIGINATOR     = 

OBJECT_NAME    = STARLINK-36615
OBJECT_ID      = 2026-020E
CENTER_NAME    = EARTH
REF_FRAME      = TEME
TIME_SYSTEM    = UTC
MEAN_ELEMENT_THEORY = SGP/SGP4

EPOCH          = 2026-02-23T18:06:54.778752
MEAN_MOTION    = 15.81395077
ECCENTRICITY   = .0005123
INCLINATION    = 42.9981
RA_OF_ASC_NODE = 226.2491
ARG_OF_PERICENTER = 132.7337
MEAN_ANOMALY   = 227.3967

EPHEMERIS_TYPE = 0
CLASSIFICATION_TYPE = U
NORAD_CAT_ID   = 67621
ELEMENT_SET_NO = 999
REV_AT_EPOCH   = 389
BSTAR          = .18772E-2
MEAN_MOTION_DOT = .402035E-2
MEAN_MOTION_DDOT = 0

CCSDS_OMM_VERS = 2.0
CREATION_DATE  = 
ORIGINATOR     = 

OBJECT_NAME    = STARLINK-36614
OBJECT_ID      = 2026-020F
CENTER_NAME    = EARTH
REF_FRAME      = TEME
TIME_SYSTEM    = UTC
MEAN_ELEMENT_THEORY = SGP/SGP4

EPOCH          = 2026-02-22T20:22:22.303200
MEAN_MOTION    = 15.76463187
ECCENTRICITY   = .0002584
INCLINATION    = 42.9988
RA_OF_ASC_NODE = 232.3866
ARG_OF_PERICENTER = 287.6022
MEAN_ANOMALY   = 72.4565

EPHEMERIS_TYPE = 0
CLASSIFICATION_TYPE = U
NORAD_CAT_ID   = 67622
ELEMENT_SET_NO = 999
REV_AT_EPOCH   = 374
BSTAR          = .83608E-3
MEAN_MOTION_DOT = .13851E-2
MEAN_MOTION_DDOT = 0

CCSDS_OMM_VERS = 2.0
CREATION_DATE  = 
ORIGINATOR     = 

OBJECT_NAME    = STARLINK-36600
OBJECT_ID      = 2026-020G
CENTER_NAME    = EARTH
REF_FRAME      = TEME
TIME_SYSTEM    = UTC
MEAN_ELEMENT_THEORY = SGP/SGP4

EPOCH          = 2026-02-23T19:14:04.724448
MEAN_MOTION    = 15.76666953
ECCENTRICITY   = .0003964
INCLINATION    = 42.9974
RA_OF_ASC_NODE = 226.6264
ARG_OF_PERICENTER = 275.9635
MEAN_ANOMALY   = 84.0783

EPHEMERIS_TYPE = 0
CLASSIFICATION_TYPE = U
NORAD_CAT_ID   = 67623
ELEMENT_SET_NO = 999
REV_AT_EPOCH   = 389
BSTAR          = .1923E-2
MEAN_MOTION_DOT = .329539E-2
MEAN_MOTION_DDOT = 0

